{
    "links": {
        "self": "http://www.neowsapp.com/rest/v1/neo/3766051?api_key=iIulBulltgU6a56xZRHN4H3l9WmuAYTsLGpBGhQ2"
    },
    "id": "3766051",
    "neo_reference_id": "3766051",
    "name": "(2016 YK)",
    "designation": "2016 YK",
    "nasa_jpl_url": "http://ssd.jpl.nasa.gov/sbdb.cgi?sstr=3766051",
    "absolute_magnitude_h": 23.6,
    "estimated_diameter": {
        "kilometers": {
            "estimated_diameter_min": 0.0506471459,
            "estimated_diameter_max": 0.1132504611
        },
        "meters": {
            "estimated_diameter_min": 50.6471458835,
            "estimated_diameter_max": 113.2504610618
        },
        "miles": {
            "estimated_diameter_min": 0.0314706677,
            "estimated_diameter_max": 0.0703705522
        },
        "feet": {
            "estimated_diameter_min": 166.1651821003,
            "estimated_diameter_max": 371.5566426699
        }
    },
    "is_potentially_hazardous_asteroid": false,
    "close_approach_data": [
        {
            "close_approach_date": "2010-04-17",
            "close_approach_date_full": "2010-Apr-17 00:47",
            "epoch_date_close_approach": 1271465220000,
            "relative_velocity": {
                "kilometers_per_second": "23.581385247",
                "kilometers_per_hour": "84892.9868891719",
                "miles_per_hour": "52749.2006589969"
            },
            "miss_distance": {
                "astronomical": "0.4720642002",
                "lunar": "183.6329738778",
                "kilometers": "70619798.853173574",
                "miles": "43881108.2133363612"
            },
            "orbiting_body": "Earth"
        },
        {
            "close_approach_date": "2013-05-23",
            "close_approach_date_full": "2013-May-23 10:17",
            "epoch_date_close_approach": 1369304220000,
            "relative_velocity": {
                "kilometers_per_second": "17.0408878862",
                "kilometers_per_hour": "61347.1963904939",
                "miles_per_hour": "38118.7621127488"
            },
            "miss_distance": {
                "astronomical": "0.0776440329",
                "lunar": "30.2035287981",
                "kilometers": "11615381.940049923",
                "miles": "7217463.6593100174"
            },
            "orbiting_body": "Mars"
        },
        {
            "close_approach_date": "2017-01-08",
            "close_approach_date_full": "2017-Jan-08 01:10",
            "epoch_date_close_approach": 1483837800000,
            "relative_velocity": {
                "kilometers_per_second": "9.8366510175",
                "kilometers_per_hour": "35411.9436631324",
                "miles_per_hour": "22003.604661128"
            },
            "miss_distance": {
                "astronomical": "0.0347858823",
                "lunar": "13.5317082147",
                "kilometers": "5203893.898150701",
                "miles": "3233549.7266176338"
            },
            "orbiting_body": "Earth"
        }
    ],
    "orbital_data": {
        "orbit_id": "14",
        "orbit_determination_date": "2017-04-06 08:21:26",
        "first_observation_date": "2016-12-18",
        "last_observation_date": "2017-01-05",
        "data_arc_in_days": 18,
        "observations_used": 80,
        "orbit_uncertainty": "7",
        "minimum_orbit_intersection": ".0345698",
        "jupiter_tisserand_invariant": "3.355",
        "epoch_osculation": "2459000.5",
        "eccentricity": ".5832753971779617",
        "semi_major_axis": "2.278742260986966",
        "inclination": "4.503119496133329",
        "ascending_node_longitude": "83.91238863112908",
        "orbital_period": "1256.438503765477",
        "perihelion_distance": ".9496079636435867",
        "perihelion_argument": "53.52793628771742",
        "aphelion_distance": "3.607876558330344",
        "perihelion_time": "2459040.086534215896",
        "mean_anomaly": "348.6575011232045",
        "mean_motion": ".2865241704397786",
        "equinox": "J2000",
        "orbit_class": {
            "orbit_class_type": "APO",
            "orbit_class_description": "Near-Earth asteroid orbits which cross the Earth’s orbit similar to that of 1862 Apollo",
            "orbit_class_range": "a (semi-major axis) > 1.0 AU; q (perihelion) < 1.017 AU"
        }
    },
    "is_sentry_object": false
}